start=new Date('2022-10-06T00:00:00.000Z').valueOf();
sats=[{"ELEMENT_SET_NO":"999","PERIOD":"95.593","OBJECT_ID":"2021-024F","SEMIMAJOR_AXIS":"6925.386","CLASSIFICATION_TYPE":"U","MEAN_ANOMALY":"288.9644","EPOCH":"2022-10-05T20:10:53.902560","ECCENTRICITY":"0.00013950","MEAN_ELEMENT_THEORY":"SGP4","INCLINATION":"53.0542","MEAN_MOTION":"15.06387809","MEAN_MOTION_DDOT":"0.0000000000000","FILE":"3593077","TLE_LINE2":"2 47982  53.0542 121.8958 0001395  71.1496 288.9644 15.06387809 86957","MEAN_MOTION_DOT":"0.00000910","OBJECT_TYPE":"PAYLOAD","TIME_SYSTEM":"UTC","SITE":"AFETR","APOAPSIS":"548.217","NORAD_CAT_ID":"47982","CENTER_NAME":"EARTH","TLE_LINE1":"1 47982U 21024F   22278.84090165  .00000910  00000-0  79988-4 0  9998","GP_ID":"214274653","LAUNCH_DATE":"2021-03-24","REF_FRAME":"TEME","REV_AT_EPOCH":"8695","BSTAR":"0.00007998800000","RA_OF_ASC_NODE":"121.8958","ARG_OF_PERICENTER":"71.1496","EPHEMERIS_TYPE":"0","COUNTRY_CODE":"US","DECAY_DATE":null,"RCS_SIZE":"LARGE","PERIAPSIS":"546.285","OBJECT_NAME":"STARLINK-2317"},{"OBJECT_ID":"2021-024J","PERIOD":"95.592","ELEMENT_SET_NO":"999","ECCENTRICITY":"0.00011050","EPOCH":"2022-10-05T20:18:13.674240","MEAN_ANOMALY":"251.5879","CLASSIFICATION_TYPE":"U","SEMIMAJOR_AXIS":"6925.359","MEAN_MOTION_DDOT":"0.0000000000000","INCLINATION":"53.0539","MEAN_MOTION":"15.06396491","MEAN_ELEMENT_THEORY":"SGP4","SITE":"AFETR","TIME_SYSTEM":"UTC","OBJECT_TYPE":"PAYLOAD","MEAN_MOTION_DOT":"-0.00001394","TLE_LINE2":"2 47985  53.0539 127.0431 0001105 108.5230 251.5879 15.06396491 86874","FILE":"3593077","CENTER_NAME":"EARTH","NORAD_CAT_ID":"47985","APOAPSIS":"547.990","REV_AT_EPOCH":"8687","BSTAR":"-0.00007471700000","LAUNCH_DATE":"2021-03-24","REF_FRAME":"TEME","GP_ID":"214274899","TLE_LINE1":"1 47985U 21024J   22278.84599160 -.00001394  00000-0 -74717-4 0  9994","ARG_OF_PERICENTER":"108.5230","EPHEMERIS_TYPE":"0","RA_OF_ASC_NODE":"127.0431","OBJECT_NAME":"STARLINK-2308","PERIAPSIS":"546.459","DECAY_DATE":null,"RCS_SIZE":"LARGE","COUNTRY_CODE":"US"},{"OBJECT_ID":"2021-024N","PERIOD":"95.592","ELEMENT_SET_NO":"999","EPOCH":"2022-10-05T19:57:37.559808","ECCENTRICITY":"0.00014050","CLASSIFICATION_TYPE":"U","MEAN_ANOMALY":"261.1215","SEMIMAJOR_AXIS":"6925.365","MEAN_MOTION_DDOT":"0.0000000000000","MEAN_MOTION":"15.06394682","INCLINATION":"53.0529","MEAN_ELEMENT_THEORY":"SGP4","SITE":"AFETR","MEAN_MOTION_DOT":"-0.00000647","OBJECT_TYPE":"PAYLOAD","TIME_SYSTEM":"UTC","TLE_LINE2":"2 47989  53.0529 101.9539 0001405  98.9933 261.1215 15.06394682 87234","FILE":"3593077","CENTER_NAME":"EARTH","NORAD_CAT_ID":"47989","APOAPSIS":"548.203","LAUNCH_DATE":"2021-03-24","REF_FRAME":"TEME","REV_AT_EPOCH":"8723","BSTAR":"-0.00002457000000","TLE_LINE1":"1 47989U 21024N   22278.83168472 -.00000647  00000-0 -24570-4 0  9997","GP_ID":"214274152","RA_OF_ASC_NODE":"101.9539","ARG_OF_PERICENTER":"98.9933","EPHEMERIS_TYPE":"0","OBJECT_NAME":"STARLINK-2305","PERIAPSIS":"546.257","DECAY_DATE":null,"RCS_SIZE":"LARGE","COUNTRY_CODE":"US"},{"SITE":"AFETR","MEAN_MOTION_DOT":"0.00000693","OBJECT_TYPE":"PAYLOAD","TIME_SYSTEM":"UTC","TLE_LINE2":"2 47990  53.0545 102.1392 0001392  89.1274 270.9874 15.06401219 87211","FILE":"3593077","MEAN_MOTION_DDOT":"0.0000000000000","MEAN_MOTION":"15.06401219","INCLINATION":"53.0545","MEAN_ELEMENT_THEORY":"SGP4","EPOCH":"2022-10-05T18:48:37.266624","ECCENTRICITY":"0.00013920","CLASSIFICATION_TYPE":"U","MEAN_ANOMALY":"270.9874","SEMIMAJOR_AXIS":"6925.345","OBJECT_ID":"2021-024P","ELEMENT_SET_NO":"999","PERIOD":"95.592","OBJECT_NAME":"STARLINK-2307","PERIAPSIS":"546.246","DECAY_DATE":null,"RCS_SIZE":"LARGE","COUNTRY_CODE":"US","RA_OF_ASC_NODE":"102.1392","EPHEMERIS_TYPE":"0","ARG_OF_PERICENTER":"89.1274","LAUNCH_DATE":"2021-03-24","REF_FRAME":"TEME","REV_AT_EPOCH":"8721","BSTAR":"0.00006540100000","TLE_LINE1":"1 47990U 21024P   22278.78376466  .00000693  00000-0  65401-4 0  9994","GP_ID":"214274402","CENTER_NAME":"EARTH","NORAD_CAT_ID":"47990","APOAPSIS":"548.174"},{"DECAY_DATE":null,"RCS_SIZE":"LARGE","COUNTRY_CODE":"US","OBJECT_NAME":"STARLINK-2279","PERIAPSIS":"546.425","ARG_OF_PERICENTER":"107.3469","EPHEMERIS_TYPE":"0","RA_OF_ASC_NODE":"116.8256","TLE_LINE1":"1 47991U 21024Q   22278.86164015 -.00000476  00000-0 -13092-4 0  9999","GP_ID":"214275153","BSTAR":"-0.00001309200000","REV_AT_EPOCH":"8707","REF_FRAME":"TEME","LAUNCH_DATE":"2021-03-24","APOAPSIS":"548.047","CENTER_NAME":"EARTH","NORAD_CAT_ID":"47991","TIME_SYSTEM":"UTC","OBJECT_TYPE":"PAYLOAD","MEAN_MOTION_DOT":"-0.00000476","FILE":"3593077","TLE_LINE2":"2 47991  53.0533 116.8256 0001171 107.3469 252.7648 15.06392573 87077","SITE":"AFETR","INCLINATION":"53.0533","MEAN_MOTION":"15.06392573","MEAN_ELEMENT_THEORY":"SGP4","MEAN_MOTION_DDOT":"0.0000000000000","SEMIMAJOR_AXIS":"6925.371","ECCENTRICITY":"0.00011710","EPOCH":"2022-10-05T20:40:45.708960","MEAN_ANOMALY":"252.7648","CLASSIFICATION_TYPE":"U","PERIOD":"95.593","ELEMENT_SET_NO":"999","OBJECT_ID":"2021-024Q"},{"OBJECT_NAME":"STARLINK-2229","PERIAPSIS":"546.374","RCS_SIZE":"LARGE","DECAY_DATE":null,"COUNTRY_CODE":"US","RA_OF_ASC_NODE":"112.1015","EPHEMERIS_TYPE":"0","ARG_OF_PERICENTER":"75.4141","LAUNCH_DATE":"2021-03-24","REF_FRAME":"TEME","REV_AT_EPOCH":"8709","BSTAR":"-0.00013951000000","TLE_LINE1":"1 47992U 21024R   22278.81603180 -.00002358  00000-0 -13951-3 0  9990","GP_ID":"214275399","CENTER_NAME":"EARTH","NORAD_CAT_ID":"47992","APOAPSIS":"548.105","SITE":"AFETR","MEAN_MOTION_DOT":"-0.00002358","OBJECT_TYPE":"PAYLOAD","TIME_SYSTEM":"UTC","TLE_LINE2":"2 47992  53.0538 112.1015 0001250  75.4141 284.6986 15.06391449 87097","FILE":"3593077","MEAN_MOTION_DDOT":"0.0000000000000","INCLINATION":"53.0538","MEAN_MOTION":"15.06391449","MEAN_ELEMENT_THEORY":"SGP4","EPOCH":"2022-10-05T19:35:05.147520","ECCENTRICITY":"0.00012500","CLASSIFICATION_TYPE":"U","MEAN_ANOMALY":"284.6986","SEMIMAJOR_AXIS":"6925.375","OBJECT_ID":"2021-024R","ELEMENT_SET_NO":"999","PERIOD":"95.593"},{"MEAN_ELEMENT_THEORY":"SGP4","INCLINATION":"53.0529","MEAN_MOTION":"15.06391046","MEAN_MOTION_DDOT":"0.0000000000000","TLE_LINE2":"2 47993  53.0529 151.6877 0001305 107.5697 252.5434 15.06391046 86595","FILE":"3593077","TIME_SYSTEM":"UTC","MEAN_MOTION_DOT":"-0.00001962","OBJECT_TYPE":"PAYLOAD","SITE":"AFETR","PERIOD":"95.593","ELEMENT_SET_NO":"999","OBJECT_ID":"2021-024S","SEMIMAJOR_AXIS":"6925.376","MEAN_ANOMALY":"252.5434","CLASSIFICATION_TYPE":"U","ECCENTRICITY":"0.00013050","EPOCH":"2022-10-05T21:21:13.853952","EPHEMERIS_TYPE":"0","ARG_OF_PERICENTER":"107.5697","RA_OF_ASC_NODE":"151.6877","COUNTRY_CODE":"US","DECAY_DATE":null,"RCS_SIZE":"LARGE","PERIAPSIS":"546.337","OBJECT_NAME":"STARLINK-2273","APOAPSIS":"548.145","NORAD_CAT_ID":"47993","CENTER_NAME":"EARTH","TLE_LINE1":"1 47993U 21024S   22278.88974368 -.00001962  00000-0 -11288-3 0  9998","GP_ID":"214273653","BSTAR":"-0.00011288000000","REV_AT_EPOCH":"8659","REF_FRAME":"TEME","LAUNCH_DATE":"2021-03-24"},{"OBJECT_ID":"2021-024T","PERIOD":"95.593","ELEMENT_SET_NO":"999","EPOCH":"2022-10-05T18:16:06.649248","ECCENTRICITY":"0.00011380","CLASSIFICATION_TYPE":"U","MEAN_ANOMALY":"259.8871","SEMIMAJOR_AXIS":"6925.381","MEAN_MOTION_DDOT":"0.0000000000000","MEAN_MOTION":"15.06389342","INCLINATION":"53.0544","MEAN_ELEMENT_THEORY":"SGP4","SITE":"AFETR","MEAN_MOTION_DOT":"-0.00002522","OBJECT_TYPE":"PAYLOAD","TIME_SYSTEM":"UTC","FILE":"3593077","TLE_LINE2":"2 47994  53.0544 167.2615 0001138 100.2247 259.8871 15.06389342 86301","CENTER_NAME":"EARTH","NORAD_CAT_ID":"47994","APOAPSIS":"548.034","LAUNCH_DATE":"2021-03-24","REF_FRAME":"TEME","BSTAR":"-0.00015056000000","REV_AT_EPOCH":"8630","GP_ID":"214273903","TLE_LINE1":"1 47994U 21024T   22278.76118807 -.00002522  00000-0 -15056-3 0  9994","RA_OF_ASC_NODE":"167.2615","EPHEMERIS_TYPE":"0","ARG_OF_PERICENTER":"100.2247","OBJECT_NAME":"STARLINK-2290","PERIAPSIS":"546.458","DECAY_DATE":null,"RCS_SIZE":"LARGE","COUNTRY_CODE":"US"},{"PERIOD":"95.593","ELEMENT_SET_NO":"999","OBJECT_ID":"2021-024U","SEMIMAJOR_AXIS":"6925.403","MEAN_ANOMALY":"261.3971","CLASSIFICATION_TYPE":"U","ECCENTRICITY":"0.00011700","EPOCH":"2022-10-05T20:04:19.116768","MEAN_ELEMENT_THEORY":"SGP4","INCLINATION":"53.0527","MEAN_MOTION":"15.06382169","MEAN_MOTION_DDOT":"0.0000000000000","TLE_LINE2":"2 47995  53.0527 132.2293 0001170  98.7150 261.3971 15.06382169 86812","FILE":"3593077","TIME_SYSTEM":"UTC","OBJECT_TYPE":"PAYLOAD","MEAN_MOTION_DOT":"-0.00001428","SITE":"AFETR","APOAPSIS":"548.078","NORAD_CAT_ID":"47995","CENTER_NAME":"EARTH","GP_ID":"214274654","TLE_LINE1":"1 47995U 21024U   22278.83633237 -.00001428  00000-0 -77003-4 0  9997","REV_AT_EPOCH":"8681","BSTAR":"-0.00007700300000","LAUNCH_DATE":"2021-03-24","REF_FRAME":"TEME","EPHEMERIS_TYPE":"0","ARG_OF_PERICENTER":"98.7150","RA_OF_ASC_NODE":"132.2293","COUNTRY_CODE":"US","RCS_SIZE":"LARGE","DECAY_DATE":null,"PERIAPSIS":"546.458","OBJECT_NAME":"STARLINK-2309"},{"PERIAPSIS":"546.294","OBJECT_NAME":"STARLINK-2260","COUNTRY_CODE":"US","DECAY_DATE":null,"RCS_SIZE":"LARGE","EPHEMERIS_TYPE":"0","ARG_OF_PERICENTER":"64.3889","RA_OF_ASC_NODE":"56.4822","BSTAR":"-0.00194910000000","REV_AT_EPOCH":"130","LAUNCH_DATE":"2021-03-24","REF_FRAME":"TEME","GP_ID":"214274900","TLE_LINE1":"1 47996U 21024V   22279.00001157 -.00029187  00000-0 -19491-2 0  9995","NORAD_CAT_ID":"47996","CENTER_NAME":"EARTH","APOAPSIS":"548.193","SITE":"AFETR","TLE_LINE2":"2 47996  53.0552  56.4822 0001371  64.3889 236.3916 15.06390140  1307","FILE":"3593077","TIME_SYSTEM":"UTC","OBJECT_TYPE":"PAYLOAD","MEAN_MOTION_DOT":"-0.00029187","MEAN_MOTION_DDOT":"0.0000000000000","MEAN_ELEMENT_THEORY":"SGP4","MEAN_MOTION":"15.06390140","INCLINATION":"53.0552","MEAN_ANOMALY":"236.3916","CLASSIFICATION_TYPE":"U","ECCENTRICITY":"0.00013710","EPOCH":"2022-10-06T00:00:00.999648","SEMIMAJOR_AXIS":"6925.379","OBJECT_ID":"2021-024V","ELEMENT_SET_NO":"999","PERIOD":"95.593"}];
